STARLINK-31582          
1 59545U 24074M   25311.69805036  .00002472  00000+0  99288-4 0  9998
2 59545  43.0020 312.7805 0002049 287.1977  72.8650 15.27589773 87356
STARLINK-31519          
1 59546U 24074N   25311.71204537  .00003657  00000+0  14231-3 0  9991
2 59546  43.0017 312.0245 0001521 283.1478  76.9204 15.27589376 87360
STARLINK-31736          
1 59547U 24074P   25310.29891878  .00002310  00000+0  93423-4 0  9990
2 59547  43.0017 313.4136 0000919 256.4527 103.6222 15.27585312 87222
STARLINK-31675          
1 59548U 24074Q   25309.24279304 -.00001337  00000+0 -39079-4 0  9995
2 59548  43.0037 326.1747 0001105 266.2665  93.8061 15.27573238 86981
STARLINK-31722          
1 59549U 24074R   25311.70818757  .00002826  00000+0  11213-3 0  9992
2 59549  43.0006 311.9953 0000556 271.0574  89.0214 15.27586487 87361
STARLINK-31741          
1 59550U 24074S   25311.71589753  .00001712  00000+0  71716-4 0  9994
2 59550  43.0033 312.0560 0001151 261.2366  98.8355 15.27581431 87369
STARLINK-31699          
1 59551U 24074T   25311.73002745  .00005467  00000+0  20792-3 0  9996
2 59551  43.0040 312.1629 0000994 276.0712  84.0027 15.27600288 87363
STARLINK-31750          
1 59552U 24074U   25311.28388470  .00003756  00000+0  14583-3 0  9999
2 59552  43.0027 314.8325 0000636 195.6972 164.3860 15.27603288 87290
STARLINK-31723          
1 59553U 24074V   25311.73773470  .00002186  00000+0  88925-4 0  9996
2 59553  43.0027 312.2213 0001917 271.1419  88.9213 15.27592857 87368
STARLINK-31724          
1 59554U 24074W   25311.60901419 -.00006226  00000+0 -21702-3 0  9999
2 59554  43.0056 276.9295 0002180 254.5629 105.4982 15.27560738 87752
STARLINK-31730          
1 59555U 24074X   25311.70190494  .00008563  00000+0  32016-3 0  9998
2 59555  43.0006 312.8059 0001371 283.3274  76.7425 15.27596483 87357
STARLINK-31718          
1 59556U 24074Y   25311.49417742  .00020510  00000+0  75172-3 0  9999
2 59556  43.0033 313.8315 0002069 276.6819  83.3797 15.27626297 87329
STARLINK-31747          
1 59564U 24076A   25311.34239043  .00001081  00000+0  48782-4 0  9990
2 59564  43.0018 329.3707 0000254  65.2363 294.8515 15.27581402 87907
STARLINK-31388          
1 59565U 24076B   25311.76665838  .00013999  00000+0  51718-3 0  9995
2 59565  42.9998 337.7928 0002736 261.2352  98.8190 15.27583393 87850
STARLINK-31332          
1 59566U 24076C   25311.79863757  .00000021  00000+0  10294-4 0  9996
2 59566  43.0054 337.1537 0002506 271.4154  88.6411 15.27581262 87861
STARLINK-31689          
1 59567U 24076D   25311.36840796  .00007942  00000+0  29780-3 0  9996
2 59567  43.0039 336.4893 0001524 287.0424  73.0261 15.27582001 87834
STARLINK-31471          
1 59568U 24076E   25311.80506836 -.00000092  00000+0  61869-5 0  9996
2 59568  43.0042 337.1984 0000535 279.3722  80.7069 15.27583225 87777
