[{"OBJECT_NAME":"STARLINK-31582","OBJECT_ID":"2024-074M","EPOCH":"2025-11-07T16:45:11.551104","MEAN_MOTION":15.27589773,"ECCENTRICITY":0.0002049,"INCLINATION":43.002,"RA_OF_ASC_NODE":312.7805,"ARG_OF_PERICENTER":287.1977,"MEAN_ANOMALY":72.865,"EPHEMERIS_TYPE":0,"CLASSIFICATION_TYPE":"U","NORAD_CAT_ID":59545,"ELEMENT_SET_NO":999,"REV_AT_EPOCH":8735,"BSTAR":9.9288e-5,"MEAN_MOTION_DOT":2.472e-5,"MEAN_MOTION_DDOT":0},{"OBJECT_NAME":"STARLINK-31519","OBJECT_ID":"2024-074N","EPOCH":"2025-11-07T17:05:20.719968","MEAN_MOTION":15.27589376,"ECCENTRICITY":0.0001521,"INCLINATION":43.0017,"RA_OF_ASC_NODE":312.0245,"ARG_OF_PERICENTER":283.1478,"MEAN_ANOMALY":76.9204,"EPHEMERIS_TYPE":0,"CLASSIFICATION_TYPE":"U","NORAD_CAT_ID":59546,"ELEMENT_SET_NO":999,"REV_AT_EPOCH":8736,"BSTAR":0.00014231,"MEAN_MOTION_DOT":3.657e-5,"MEAN_MOTION_DDOT":0},{"OBJECT_NAME":"STARLINK-31736","OBJECT_ID":"2024-074P","EPOCH":"2025-11-06T07:10:26.582592","MEAN_MOTION":15.27585312,"ECCENTRICITY":9.19e-5,"INCLINATION":43.0017,"RA_OF_ASC_NODE":313.4136,"ARG_OF_PERICENTER":256.4527,"MEAN_ANOMALY":103.6222,"EPHEMERIS_TYPE":0,"CLASSIFICATION_TYPE":"U","NORAD_CAT_ID":59547,"ELEMENT_SET_NO":999,"REV_AT_EPOCH":8722,"BSTAR":9.3423e-5,"MEAN_MOTION_DOT":2.31e-5,"MEAN_MOTION_DDOT":0},{"OBJECT_NAME":"STARLINK-31675","OBJECT_ID":"2024-074Q","EPOCH":"2025-11-05T05:49:37.318656","MEAN_MOTION":15.27573238,"ECCENTRICITY":0.00011059,"INCLINATION":43.0037,"RA_OF_ASC_NODE":326.1747,"ARG_OF_PERICENTER":266.2665,"MEAN_ANOMALY":93.8061,"EPHEMERIS_TYPE":0,"CLASSIFICATION_TYPE":"U","NORAD_CAT_ID":59548,"ELEMENT_SET_NO":999,"REV_AT_EPOCH":8698,"BSTAR":-3.9078964e-5,"MEAN_MOTION_DOT":-1.337e-5,"MEAN_MOTION_DDOT":0},{"OBJECT_NAME":"STARLINK-31722","OBJECT_ID":"2024-074R","EPOCH":"2025-11-07T16:59:47.406048","MEAN_MOTION":15.27586487,"ECCENTRICITY":5.56e-5,"INCLINATION":43.0006,"RA_OF_ASC_NODE":311.9953,"ARG_OF_PERICENTER":271.0574,"MEAN_ANOMALY":89.0214,"EPHEMERIS_TYPE":0,"CLASSIFICATION_TYPE":"U","NORAD_CAT_ID":59549,"ELEMENT_SET_NO":999,"REV_AT_EPOCH":8736,"BSTAR":0.00011213,"MEAN_MOTION_DOT":2.826e-5,"MEAN_MOTION_DDOT":0},{"OBJECT_NAME":"STARLINK-31741","OBJECT_ID":"2024-074S","EPOCH":"2025-11-07T17:10:53.546592","MEAN_MOTION":15.27581431,"ECCENTRICITY":0.0001151,"INCLINATION":43.0033,"RA_OF_ASC_NODE":312.056,"ARG_OF_PERICENTER":261.2366,"MEAN_ANOMALY":98.8355,"EPHEMERIS_TYPE":0,"CLASSIFICATION_TYPE":"U","NORAD_CAT_ID":59550,"ELEMENT_SET_NO":999,"REV_AT_EPOCH":8736,"BSTAR":7.1716e-5,"MEAN_MOTION_DOT":1.712e-5,"MEAN_MOTION_DDOT":0},{"OBJECT_NAME":"STARLINK-31699","OBJECT_ID":"2024-074T","EPOCH":"2025-11-07T17:31:14.371680","MEAN_MOTION":15.27600288,"ECCENTRICITY":9.94e-5,"INCLINATION":43.004,"RA_OF_ASC_NODE":312.1629,"ARG_OF_PERICENTER":276.0712,"MEAN_ANOMALY":84.0027,"EPHEMERIS_TYPE":0,"CLASSIFICATION_TYPE":"U","NORAD_CAT_ID":59551,"ELEMENT_SET_NO":999,"REV_AT_EPOCH":8736,"BSTAR":0.00020792,"MEAN_MOTION_DOT":5.467e-5,"MEAN_MOTION_DDOT":0},{"OBJECT_NAME":"STARLINK-31750","OBJECT_ID":"2024-074U","EPOCH":"2025-11-07T06:48:47.638080","MEAN_MOTION":15.27603288,"ECCENTRICITY":6.36e-5,"INCLINATION":43.0027,"RA_OF_ASC_NODE":314.8325,"ARG_OF_PERICENTER":195.6972,"MEAN_ANOMALY":164.386,"EPHEMERIS_TYPE":0,"CLASSIFICATION_TYPE":"U","NORAD_CAT_ID":59552,"ELEMENT_SET_NO":999,"REV_AT_EPOCH":8729,"BSTAR":0.00014583,"MEAN_MOTION_DOT":3.756e-5,"MEAN_MOTION_DDOT":0},{"OBJECT_NAME":"STARLINK-31723","OBJECT_ID":"2024-074V","EPOCH":"2025-11-07T17:42:20.278080","MEAN_MOTION":15.27592857,"ECCENTRICITY":0.0001917,"INCLINATION":43.0027,"RA_OF_ASC_NODE":312.2213,"ARG_OF_PERICENTER":271.1419,"MEAN_ANOMALY":88.9213,"EPHEMERIS_TYPE":0,"CLASSIFICATION_TYPE":"U","NORAD_CAT_ID":59553,"ELEMENT_SET_NO":999,"REV_AT_EPOCH":8736,"BSTAR":8.8925e-5,"MEAN_MOTION_DOT":2.186e-5,"MEAN_MOTION_DDOT":0},{"OBJECT_NAME":"STARLINK-31724","OBJECT_ID":"2024-074W","EPOCH":"2025-11-07T14:36:58.826016","MEAN_MOTION":15.27560738,"ECCENTRICITY":0.000218,"INCLINATION":43.0056,"RA_OF_ASC_NODE":276.9295,"ARG_OF_PERICENTER":254.5629,"MEAN_ANOMALY":105.4982,"EPHEMERIS_TYPE":0,"CLASSIFICATION_TYPE":"U","NORAD_CAT_ID":59554,"ELEMENT_SET_NO":999,"REV_AT_EPOCH":8775,"BSTAR":-0.00021702,"MEAN_MOTION_DOT":-6.226e-5,"MEAN_MOTION_DDOT":0},{"OBJECT_NAME":"STARLINK-31730","OBJECT_ID":"2024-074X","EPOCH":"2025-11-07T16:50:44.586816","MEAN_MOTION":15.27596483,"ECCENTRICITY":0.0001371,"INCLINATION":43.0006,"RA_OF_ASC_NODE":312.8059,"ARG_OF_PERICENTER":283.3274,"MEAN_ANOMALY":76.7425,"EPHEMERIS_TYPE":0,"CLASSIFICATION_TYPE":"U","NORAD_CAT_ID":59555,"ELEMENT_SET_NO":999,"REV_AT_EPOCH":8735,"BSTAR":0.00032016,"MEAN_MOTION_DOT":8.563e-5,"MEAN_MOTION_DDOT":0},{"OBJECT_NAME":"STARLINK-31718","OBJECT_ID":"2024-074Y","EPOCH":"2025-11-07T11:51:36.929088","MEAN_MOTION":15.27626297,"ECCENTRICITY":0.0002069,"INCLINATION":43.0033,"RA_OF_ASC_NODE":313.8315,"ARG_OF_PERICENTER":276.6819,"MEAN_ANOMALY":83.3797,"EPHEMERIS_TYPE":0,"CLASSIFICATION_TYPE":"U","NORAD_CAT_ID":59556,"ELEMENT_SET_NO":999,"REV_AT_EPOCH":8732,"BSTAR":0.00075172,"MEAN_MOTION_DOT":0.0002051,"MEAN_MOTION_DDOT":0},{"OBJECT_NAME":"STARLINK-31747","OBJECT_ID":"2024-076A","EPOCH":"2025-11-07T08:13:02.533152","MEAN_MOTION":15.27581402,"ECCENTRICITY":2.54e-5,"INCLINATION":43.0018,"RA_OF_ASC_NODE":329.3707,"ARG_OF_PERICENTER":65.2363,"MEAN_ANOMALY":294.8515,"EPHEMERIS_TYPE":0,"CLASSIFICATION_TYPE":"U","NORAD_CAT_ID":59564,"ELEMENT_SET_NO":999,"REV_AT_EPOCH":8790,"BSTAR":4.8782e-5,"MEAN_MOTION_DOT":1.081e-5,"MEAN_MOTION_DDOT":0},{"OBJECT_NAME":"STARLINK-31388","OBJECT_ID":"2024-076B","EPOCH":"2025-11-07T18:23:59.284032","MEAN_MOTION":15.27583393,"ECCENTRICITY":0.0002736,"INCLINATION":42.9998,"RA_OF_ASC_NODE":337.7928,"ARG_OF_PERICENTER":261.2352,"MEAN_ANOMALY":98.819,"EPHEMERIS_TYPE":0,"CLASSIFICATION_TYPE":"U","NORAD_CAT_ID":59565,"ELEMENT_SET_NO":999,"REV_AT_EPOCH":8785,"BSTAR":0.00051718,"MEAN_MOTION_DOT":0.00013999,"MEAN_MOTION_DDOT":0},{"OBJECT_NAME":"STARLINK-31332","OBJECT_ID":"2024-076C","EPOCH":"2025-11-07T19:10:02.286048","MEAN_MOTION":15.27581262,"ECCENTRICITY":0.0002506,"INCLINATION":43.0054,"RA_OF_ASC_NODE":337.1537,"ARG_OF_PERICENTER":271.4154,"MEAN_ANOMALY":88.6411,"EPHEMERIS_TYPE":0,"CLASSIFICATION_TYPE":"U","NORAD_CAT_ID":59566,"ELEMENT_SET_NO":999,"REV_AT_EPOCH":8786,"BSTAR":1.0294e-5,"MEAN_MOTION_DOT":2.1e-7,"MEAN_MOTION_DDOT":0},{"OBJECT_NAME":"STARLINK-31689","OBJECT_ID":"2024-076D","EPOCH":"2025-11-07T08:50:30.447744","MEAN_MOTION":15.27582001,"ECCENTRICITY":0.0001524,"INCLINATION":43.0039,"RA_OF_ASC_NODE":336.4893,"ARG_OF_PERICENTER":287.0424,"MEAN_ANOMALY":73.0261,"EPHEMERIS_TYPE":0,"CLASSIFICATION_TYPE":"U","NORAD_CAT_ID":59567,"ELEMENT_SET_NO":999,"REV_AT_EPOCH":8783,"BSTAR":0.0002978,"MEAN_MOTION_DOT":7.942e-5,"MEAN_MOTION_DDOT":0},{"OBJECT_NAME":"STARLINK-31471","OBJECT_ID":"2024-076E","EPOCH":"2025-11-07T19:19:17.906304","MEAN_MOTION":15.27583225,"ECCENTRICITY":5.35e-5,"INCLINATION":43.0042,"RA_OF_ASC_NODE":337.1984,"ARG_OF_PERICENTER":279.3722,"MEAN_ANOMALY":80.7069,"EPHEMERIS_TYPE":0,"CLASSIFICATION_TYPE":"U","NORAD_CAT_ID":59568,"ELEMENT_SET_NO":999,"REV_AT_EPOCH":8777,"BSTAR":6.1869e-6,"MEAN_MOTION_DOT":-9.2e-7,"MEAN_MOTION_DDOT":0}]
